ONEWEB-0501             
1 54119U 22138G   24049.18411068  .00000079  00000+0  16409-3 0  9992
2 54119  87.9160 114.1783 0002465  91.5169 268.6246 13.19724882 65567
ONEWEB-0502             
1 54120U 22138H   24049.47315441 -.00000058  00000+0 -17777-3 0  9992
2 54120  87.9159 114.1115 0002295  96.6143 263.5251 13.19724552 65626
ONEWEB-0503             
1 54121U 22138J   24048.93139544  .00000362  00000+0  87154-3 0  9993
2 54121  87.9160 114.2267 0002039 113.2211 246.9137 13.19723196 64671
ONEWEB-0504             
1 54122U 22138K   24049.44946548  .00000098  00000+0  21256-3 0  9998
2 54122  87.9162 114.1265 0002383 101.1186 259.0214 13.19724227 65623
ONEWEB-0505             
1 54123U 22138L   24049.14302543  .00001691  00000+0  41887-2 0  9998
2 54123  87.9164 114.1843 0002598  92.4685 267.6746 13.19737371 65564
ONEWEB-0506             
1 54124U 22138M   24048.89031451  .00000133  00000+0  30011-3 0  9995
2 54124  87.9159 114.2313 0002171  95.8203 264.3177 13.19725765 64657
ONEWEB-0507             
1 54125U 22138N   24048.91086706  .00000070  00000+0  14144-3 0  9991
2 54125  87.9170 114.2383 0002144  91.7713 268.3665 13.19725155 64704
ONEWEB-0508             
1 54126U 22138P   24049.43840952  .00000005  00000+0 -19308-4 0  9998
2 54126  87.9166 114.1302 0002444  90.6709 269.4703 13.19724082 65621
